[
    {
        "CCSDS_OMM_VERS": "3.0",
        "COMMENT": "GENERATED VIA SPACE-TRACK.ORG API",
        "CREATION_DATE": "2025-03-02T18:08:23",
        "ORIGINATOR": "18 SPCS",
        "OBJECT_NAME": "COSMOS 2474 (GLONASS)",
        "OBJECT_ID": "2011-055A",
        "CENTER_NAME": "EARTH",
        "REF_FRAME": "TEME",
        "TIME_SYSTEM": "UTC",
        "MEAN_ELEMENT_THEORY": "SGP4",
        "EPOCH": "2025-03-01T23:04:13.748736",
        "MEAN_MOTION": "2.13101264",
        "ECCENTRICITY": "0.00116840",
        "INCLINATION": "65.0272",
        "RA_OF_ASC_NODE": "88.8456",
        "ARG_OF_PERICENTER": "249.1082",
        "MEAN_ANOMALY": "113.0693",
        "EPHEMERIS_TYPE": "0",
        "CLASSIFICATION_TYPE": "U",
        "NORAD_CAT_ID": "37829",
        "ELEMENT_SET_NO": "999",
        "REV_AT_EPOCH": "10439",
        "BSTAR": "0.00000000000000",
        "MEAN_MOTION_DOT": "0.00000041",
        "MEAN_MOTION_DDOT": "0.0000000000000",
        "SEMIMAJOR_AXIS": "25508.083",
        "PERIOD": "675.735",
        "APOAPSIS": "19159.752",
        "PERIAPSIS": "19100.145",
        "OBJECT_TYPE": "PAYLOAD",
        "RCS_SIZE": "LARGE",
        "COUNTRY_CODE": "CIS",
        "LAUNCH_DATE": "2011-10-02",
        "SITE": "PKMTR",
        "DECAY_DATE": null,
        "FILE": "4657142",
        "GP_ID": "282083852",
        "TLE_LINE0": "0 COSMOS 2474 (GLONASS)",
        "TLE_LINE1": "1 37829U 11055A   25060.96127024  .00000041  00000-0  00000-0 0  9990",
        "TLE_LINE2": "2 37829  65.0272  88.8456 0011684 249.1082 113.0693  2.13101264104398"
    }
]